[{"OBJECT_NAME":"KINEIS-1A","OBJECT_ID":"2024-114F","EPOCH":"2026-03-09T23:45:50.090112","MEAN_MOTION":14.80439392,"ECCENTRICITY":0.00048167,"INCLINATION":97.9936,"RA_OF_ASC_NODE":93.6517,"ARG_OF_PERICENTER":91.725,"MEAN_ANOMALY":268.4514,"EPHEMERIS_TYPE":0,"CLASSIFICATION_TYPE":"U","NORAD_CAT_ID":60084,"ELEMENT_SET_NO":999,"REV_AT_EPOCH":9271,"BSTAR":0.00016296213,"MEAN_MOTION_DOT":1.193e-5,"MEAN_MOTION_DDOT":0},{"OBJECT_NAME":"CZ-6A DEB","OBJECT_ID":"2024-140MQ","EPOCH":"2026-03-09T14:05:04.945920","MEAN_MOTION":14.57255116,"ECCENTRICITY":0.0124602,"INCLINATION":88.9858,"RA_OF_ASC_NODE":281.4248,"ARG_OF_PERICENTER":247.0195,"MEAN_ANOMALY":111.7831,"EPHEMERIS_TYPE":0,"CLASSIFICATION_TYPE":"U","NORAD_CAT_ID":61074,"ELEMENT_SET_NO":999,"REV_AT_EPOCH":8205,"BSTAR":0.00041723,"MEAN_MOTION_DOT":2.114e-5,"MEAN_MOTION_DDOT":0}]
